INTELSAT 23 (IS-23)     
1 38867U 12057A   26073.91456321 -.00000286  00000+0  00000+0 0  9991
2 38867   0.0385 254.8512 0001064 112.3031  81.5708  1.00269430 49006
FM-6                    
1 39360U 13058A   26074.04456376 -.00000017  00000+0  00000+0 0  9999
2 39360   0.0166 148.0198 0003177  42.0522 242.4098  1.00267420 45123
INTELSAT 30 (IS-30)     
1 40271U 14062A   26072.66324493 -.00000151  00000+0  00000+0 0  9997
2 40271   0.0155  82.4752 0001692  30.1295 202.3988  1.00272886  5835
DIRECTV 14              
1 40333U 14078B   26074.17154780  .00000000  00000+0  00000+0 0  9993
2 40333   0.0258 142.2054 0000643 341.6991  11.3940  1.00267375 41109
DIRECTV 15              
1 40663U 15026A   26072.96364175 -.00000103  00000+0  00000+0 0  9994
2 40663   0.0239 102.3974 0000591  55.2994 257.9103  1.00273949 39509
SKY MEXICO-1            
1 40664U 15026B   26074.26599802 -.00000235  00000+0  00000+0 0  9993
2 40664   0.0155 178.4373 0002205 200.5132 170.8733  1.00271888 39510
INTELSAT 34 (IS-34)     
1 40874U 15039A   26072.91573539 -.00000286  00000+0  00000+0 0  9995
2 40874   0.0172 250.1605 0000254 178.7909  16.7448  1.00272479 38661
INTELSAT 31 (IS-31)     
1 41581U 16035A   26072.48001788 -.00000151  00000+0  00000+0 0  9993
2 41581   0.0385 250.9517 0001555 346.8834  11.0308  1.00274362 35723
INTELSAT 36 (IS-36)     
1 41747U 16053A   26072.20920001  .00000000  00000+0  00000+0 0  9997
2 41747   0.0193 126.4574 0001099 219.8444 328.3630  1.00272719 34997
INTELSAT 32E (IS-32E)   
1 41945U 17007B   26071.49187659 -.00000269  00000+0  00000+0 0  9999
2 41945   0.0131 123.3831 0000116 337.3904 203.2341  1.00269761 33258
INTELSAT 35E (IS-35E)   
1 42818U 17041A   26074.26317426 -.00000239  00000+0  00000+0 0  9999
2 42818   0.0106 210.9329 0002074 148.5767 233.5858  1.00271139 31876
INTELSAT 37E (IS-37E)   
1 42950U 17059A   26074.27804474 -.00000141  00000+0  00000+0 0  9992
2 42950   0.0151 134.9957 0002109 225.1976 254.7786  1.00272869 31122
AZERSPACE 2 (IS-38)     
1 43632U 18074A   26071.29767126  .00000138  00000+0  00000+0 0  9994
2 43632   0.0162 167.1748 0002142 185.4789 329.5515  1.00266327 27471
HORIZONS-3E             
1 43633U 18074B   26072.32266904 -.00000031  00000+0  00000+0 0  9991
2 43633   0.0019 309.6363 0000602  51.3128  95.1397  1.00272801 27384
AT&T T-16               
1 44333U 19034A   26073.04928929 -.00000116  00000+0  00000+0 0  9992
2 44333   0.0200 105.2665 0001064  57.2361 286.0465  1.00272737 24670
INTELSAT 39 (IS-39)     
1 44476U 19049B   26072.69041483  .00000000  00000+0  00000+0 0  9998
2 44476   0.0249 154.7739 0000629 350.3364 336.7119  1.00269923 24175
GALAXY 30 (G-30)        
1 46114U 20056C   26074.25689799  .00000000  00000+0  00000+0 0  9991
2 46114   0.0272 152.7003 0002021 214.1508 133.4993  1.00270038 20356
