[{"OBJECT_NAME":"INTELSAT 23 (IS-23)","OBJECT_ID":"2012-057A","EPOCH":"2026-03-14T21:56:58.261344","MEAN_MOTION":1.0026943,"ECCENTRICITY":0.0001064,"INCLINATION":0.0385,"RA_OF_ASC_NODE":254.8512,"ARG_OF_PERICENTER":112.3031,"MEAN_ANOMALY":81.5708,"EPHEMERIS_TYPE":0,"CLASSIFICATION_TYPE":"U","NORAD_CAT_ID":38867,"ELEMENT_SET_NO":999,"REV_AT_EPOCH":4900,"BSTAR":0,"MEAN_MOTION_DOT":-2.86e-6,"MEAN_MOTION_DDOT":0},{"OBJECT_NAME":"FM-6","OBJECT_ID":"2013-058A","EPOCH":"2026-03-15T01:04:10.308864","MEAN_MOTION":1.0026742,"ECCENTRICITY":0.00031776,"INCLINATION":0.0166,"RA_OF_ASC_NODE":148.0198,"ARG_OF_PERICENTER":42.0522,"MEAN_ANOMALY":242.4098,"EPHEMERIS_TYPE":0,"CLASSIFICATION_TYPE":"U","NORAD_CAT_ID":39360,"ELEMENT_SET_NO":999,"REV_AT_EPOCH":4512,"BSTAR":0,"MEAN_MOTION_DOT":-1.7e-7,"MEAN_MOTION_DDOT":0},{"OBJECT_NAME":"INTELSAT 30 (IS-30)","OBJECT_ID":"2014-062A","EPOCH":"2026-03-13T15:55:04.361952","MEAN_MOTION":1.00272886,"ECCENTRICITY":0.00016928,"INCLINATION":0.0155,"RA_OF_ASC_NODE":82.4752,"ARG_OF_PERICENTER":30.1295,"MEAN_ANOMALY":202.3988,"EPHEMERIS_TYPE":0,"CLASSIFICATION_TYPE":"U","NORAD_CAT_ID":40271,"ELEMENT_SET_NO":999,"REV_AT_EPOCH":583,"BSTAR":0,"MEAN_MOTION_DOT":-1.51e-6,"MEAN_MOTION_DDOT":0},{"OBJECT_NAME":"DIRECTV 14","OBJECT_ID":"2014-078B","EPOCH":"2026-03-15T04:07:01.729920","MEAN_MOTION":1.00267375,"ECCENTRICITY":6.434e-5,"INCLINATION":0.0258,"RA_OF_ASC_NODE":142.2054,"ARG_OF_PERICENTER":341.6991,"MEAN_ANOMALY":11.394,"EPHEMERIS_TYPE":0,"CLASSIFICATION_TYPE":"U","NORAD_CAT_ID":40333,"ELEMENT_SET_NO":999,"REV_AT_EPOCH":4110,"BSTAR":0,"MEAN_MOTION_DOT":0,"MEAN_MOTION_DDOT":0},{"OBJECT_NAME":"DIRECTV 15","OBJECT_ID":"2015-026A","EPOCH":"2026-03-13T23:07:38.647200","MEAN_MOTION":1.00273949,"ECCENTRICITY":5.912e-5,"INCLINATION":0.0239,"RA_OF_ASC_NODE":102.3974,"ARG_OF_PERICENTER":55.2994,"MEAN_ANOMALY":257.9103,"EPHEMERIS_TYPE":0,"CLASSIFICATION_TYPE":"U","NORAD_CAT_ID":40663,"ELEMENT_SET_NO":999,"REV_AT_EPOCH":3950,"BSTAR":0,"MEAN_MOTION_DOT":-1.03e-6,"MEAN_MOTION_DDOT":0},{"OBJECT_NAME":"SKY MEXICO-1","OBJECT_ID":"2015-026B","EPOCH":"2026-03-15T06:23:02.228928","MEAN_MOTION":1.00271888,"ECCENTRICITY":0.0002205,"INCLINATION":0.0155,"RA_OF_ASC_NODE":178.4373,"ARG_OF_PERICENTER":200.5132,"MEAN_ANOMALY":170.8733,"EPHEMERIS_TYPE":0,"CLASSIFICATION_TYPE":"U","NORAD_CAT_ID":40664,"ELEMENT_SET_NO":999,"REV_AT_EPOCH":3951,"BSTAR":0,"MEAN_MOTION_DOT":-2.35e-6,"MEAN_MOTION_DDOT":0},{"OBJECT_NAME":"INTELSAT 34 (IS-34)","OBJECT_ID":"2015-039A","EPOCH":"2026-03-13T21:58:39.537696","MEAN_MOTION":1.00272479,"ECCENTRICITY":2.541e-5,"INCLINATION":0.0172,"RA_OF_ASC_NODE":250.1605,"ARG_OF_PERICENTER":178.7909,"MEAN_ANOMALY":16.7448,"EPHEMERIS_TYPE":0,"CLASSIFICATION_TYPE":"U","NORAD_CAT_ID":40874,"ELEMENT_SET_NO":999,"REV_AT_EPOCH":3866,"BSTAR":0,"MEAN_MOTION_DOT":-2.86e-6,"MEAN_MOTION_DDOT":0},{"OBJECT_NAME":"INTELSAT 31 (IS-31)","OBJECT_ID":"2016-035A","EPOCH":"2026-03-13T11:31:13.544832","MEAN_MOTION":1.00274362,"ECCENTRICITY":0.00015557,"INCLINATION":0.0385,"RA_OF_ASC_NODE":250.9517,"ARG_OF_PERICENTER":346.8834,"MEAN_ANOMALY":11.0308,"EPHEMERIS_TYPE":0,"CLASSIFICATION_TYPE":"U","NORAD_CAT_ID":41581,"ELEMENT_SET_NO":999,"REV_AT_EPOCH":3572,"BSTAR":0,"MEAN_MOTION_DOT":-1.51e-6,"MEAN_MOTION_DDOT":0},{"OBJECT_NAME":"INTELSAT 36 (IS-36)","OBJECT_ID":"2016-053A","EPOCH":"2026-03-13T05:01:14.880864","MEAN_MOTION":1.00272719,"ECCENTRICITY":0.00010995,"INCLINATION":0.0193,"RA_OF_ASC_NODE":126.4574,"ARG_OF_PERICENTER":219.8444,"MEAN_ANOMALY":328.363,"EPHEMERIS_TYPE":0,"CLASSIFICATION_TYPE":"U","NORAD_CAT_ID":41747,"ELEMENT_SET_NO":999,"REV_AT_EPOCH":3499,"BSTAR":0,"MEAN_MOTION_DOT":0,"MEAN_MOTION_DDOT":0},{"OBJECT_NAME":"INTELSAT 32E (IS-32E)","OBJECT_ID":"2017-007B","EPOCH":"2026-03-12T11:48:18.137376","MEAN_MOTION":1.00269761,"ECCENTRICITY":1.16e-5,"INCLINATION":0.0131,"RA_OF_ASC_NODE":123.3831,"ARG_OF_PERICENTER":337.3904,"MEAN_ANOMALY":203.2341,"EPHEMERIS_TYPE":0,"CLASSIFICATION_TYPE":"U","NORAD_CAT_ID":41945,"ELEMENT_SET_NO":999,"REV_AT_EPOCH":3325,"BSTAR":0,"MEAN_MOTION_DOT":-2.69e-6,"MEAN_MOTION_DDOT":0},{"OBJECT_NAME":"INTELSAT 35E (IS-35E)","OBJECT_ID":"2017-041A","EPOCH":"2026-03-15T06:18:58.256064","MEAN_MOTION":1.00271139,"ECCENTRICITY":0.0002074,"INCLINATION":0.0106,"RA_OF_ASC_NODE":210.9329,"ARG_OF_PERICENTER":148.5767,"MEAN_ANOMALY":233.5858,"EPHEMERIS_TYPE":0,"CLASSIFICATION_TYPE":"U","NORAD_CAT_ID":42818,"ELEMENT_SET_NO":999,"REV_AT_EPOCH":3187,"BSTAR":0,"MEAN_MOTION_DOT":-2.39e-6,"MEAN_MOTION_DDOT":0},{"OBJECT_NAME":"INTELSAT 37E (IS-37E)","OBJECT_ID":"2017-059A","EPOCH":"2026-03-15T06:40:23.065536","MEAN_MOTION":1.00272869,"ECCENTRICITY":0.00021099,"INCLINATION":0.0151,"RA_OF_ASC_NODE":134.9957,"ARG_OF_PERICENTER":225.1976,"MEAN_ANOMALY":254.7786,"EPHEMERIS_TYPE":0,"CLASSIFICATION_TYPE":"U","NORAD_CAT_ID":42950,"ELEMENT_SET_NO":999,"REV_AT_EPOCH":3112,"BSTAR":0,"MEAN_MOTION_DOT":-1.41e-6,"MEAN_MOTION_DDOT":0},{"OBJECT_NAME":"AZERSPACE 2 (IS-38)","OBJECT_ID":"2018-074A","EPOCH":"2026-03-12T07:08:38.796864","MEAN_MOTION":1.00266327,"ECCENTRICITY":0.0002142,"INCLINATION":0.0162,"RA_OF_ASC_NODE":167.1748,"ARG_OF_PERICENTER":185.4789,"MEAN_ANOMALY":329.5515,"EPHEMERIS_TYPE":0,"CLASSIFICATION_TYPE":"U","NORAD_CAT_ID":43632,"ELEMENT_SET_NO":999,"REV_AT_EPOCH":2747,"BSTAR":0,"MEAN_MOTION_DOT":1.38e-6,"MEAN_MOTION_DDOT":0},{"OBJECT_NAME":"HORIZONS-3E","OBJECT_ID":"2018-074B","EPOCH":"2026-03-13T07:44:38.605056","MEAN_MOTION":1.00272801,"ECCENTRICITY":6.022e-5,"INCLINATION":0.0019,"RA_OF_ASC_NODE":309.6363,"ARG_OF_PERICENTER":51.3128,"MEAN_ANOMALY":95.1397,"EPHEMERIS_TYPE":0,"CLASSIFICATION_TYPE":"U","NORAD_CAT_ID":43633,"ELEMENT_SET_NO":999,"REV_AT_EPOCH":2738,"BSTAR":0,"MEAN_MOTION_DOT":-3.1e-7,"MEAN_MOTION_DDOT":0},{"OBJECT_NAME":"AT&T T-16","OBJECT_ID":"2019-034A","EPOCH":"2026-03-14T01:10:58.594656","MEAN_MOTION":1.00272737,"ECCENTRICITY":0.00010645,"INCLINATION":0.02,"RA_OF_ASC_NODE":105.2665,"ARG_OF_PERICENTER":57.2361,"MEAN_ANOMALY":286.0465,"EPHEMERIS_TYPE":0,"CLASSIFICATION_TYPE":"U","NORAD_CAT_ID":44333,"ELEMENT_SET_NO":999,"REV_AT_EPOCH":2467,"BSTAR":0,"MEAN_MOTION_DOT":-1.16e-6,"MEAN_MOTION_DDOT":0},{"OBJECT_NAME":"INTELSAT 39 (IS-39)","OBJECT_ID":"2019-049B","EPOCH":"2026-03-13T16:34:11.841312","MEAN_MOTION":1.00269923,"ECCENTRICITY":6.292e-5,"INCLINATION":0.0249,"RA_OF_ASC_NODE":154.7739,"ARG_OF_PERICENTER":350.3364,"MEAN_ANOMALY":336.7119,"EPHEMERIS_TYPE":0,"CLASSIFICATION_TYPE":"U","NORAD_CAT_ID":44476,"ELEMENT_SET_NO":999,"REV_AT_EPOCH":2417,"BSTAR":0,"MEAN_MOTION_DOT":0,"MEAN_MOTION_DDOT":0},{"OBJECT_NAME":"GALAXY 30 (G-30)","OBJECT_ID":"2020-056C","EPOCH":"2026-03-15T06:09:55.986336","MEAN_MOTION":1.00270038,"ECCENTRICITY":0.00020217,"INCLINATION":0.0272,"RA_OF_ASC_NODE":152.7003,"ARG_OF_PERICENTER":214.1508,"MEAN_ANOMALY":133.4993,"EPHEMERIS_TYPE":0,"CLASSIFICATION_TYPE":"U","NORAD_CAT_ID":46114,"ELEMENT_SET_NO":999,"REV_AT_EPOCH":2035,"BSTAR":0,"MEAN_MOTION_DOT":0,"MEAN_MOTION_DDOT":0}]
